OBJECT_NAME,OBJECT_ID,EPOCH,MEAN_MOTION,ECCENTRICITY,INCLINATION,RA_OF_ASC_NODE,ARG_OF_PERICENTER,MEAN_ANOMALY,EPHEMERIS_TYPE,CLASSIFICATION_TYPE,NORAD_CAT_ID,ELEMENT_SET_NO,REV_AT_EPOCH,BSTAR,MEAN_MOTION_DOT,MEAN_MOTION_DDOT
ONEWEB-0339,2021-083V,2026-07-07T07:29:15.433152,13.13469197,.00020052,87.8973,316.2203,107.4341,252.7008,0,U,49205,999,23353,-.59539704E-3,-.205E-5,0
ONEWEB-0340,2021-083W,2026-07-06T22:29:41.987328,13.18687122,.00018857,87.9190,331.5273,91.5654,268.5694,0,U,49206,999,23257,.21026444E-3,.96E-6,0
ONEWEB-0341,2021-083X,2026-07-07T07:45:43.026624,13.18688170,.00023946,87.9183,331.4525,94.6481,265.4925,0,U,49207,999,23264,.61486823E-4,.37E-6,0
ONEWEB-0342,2021-083Y,2026-07-07T04:46:46.756992,13.20772087,.00020974,87.9191,270.4494,102.6263,257.5105,0,U,49208,999,23942,.13397554E-3,.67E-6,0
ONEWEB-0343,2021-083Z,2026-07-07T07:57:51.807168,13.18687666,.00020765,87.9186,331.4499,107.3793,252.7567,0,U,49209,999,23269,.1608607E-3,.76E-6,0
ONEWEB-0344,2021-083AA,2026-07-07T07:21:56.726784,13.13469031,.00022723,87.8970,316.2338,96.2034,263.9354,0,U,49210,999,23353,-.69714678E-3,-.242E-5,0
ONEWEB-0345,2021-083AB,2026-07-07T07:09:45.577152,13.13469373,.00022338,87.8982,316.2198,97.3263,262.8120,0,U,49211,999,23354,-.45846881E-3,-.155E-5,0
ONEWEB-0346,2021-083AC,2026-07-07T09:42:16.057728,13.18687530,.00017772,87.9181,331.4347,75.1711,284.9618,0,U,49212,999,23264,.13228808E-3,.65E-6,0
ONEWEB-0348,2021-083AD,2026-07-07T04:32:14.315712,13.20771731,.00022708,87.9195,270.4557,86.4784,273.6609,0,U,49213,999,23945,.18469419E-3,.88E-6,0
ONEWEB-0350,2021-083AE,2026-07-07T07:36:39.127392,13.13439568,.00016078,87.8970,316.2203,126.1299,233.9979,0,U,49214,999,23357,-.84103194E-2,-.3056E-4,0
ONEWEB-0351,2021-083AF,2026-07-06T17:27:46.833696,13.20770718,.00025543,87.9193,270.5463,109.5944,250.5466,0,U,49215,999,23935,-.17359248E-4,.6E-7,0
ONEWEB-0352,2021-083AG,2026-07-07T06:55:08.000256,13.13468909,.00021223,87.8975,316.2315,109.1178,251.0181,0,U,49216,999,23366,.18357625E-3,.8E-6,0
ONEWEB-0354,2021-083AH,2026-07-07T05:01:18.777504,13.20770739,.00023019,87.9194,270.4490,92.4963,267.6434,0,U,49217,999,23945,.17205191E-3,.83E-6,0
ONEWEB-0355,2021-083AJ,2026-07-07T07:37:22.552032,13.13296692,.00021102,87.8968,316.2264,100.7073,259.4294,0,U,49218,999,23354,-.52877121E-3,-.18E-5,0
ONEWEB-0357,2021-083AK,2026-07-07T04:56:26.497536,13.20773095,.00022177,87.9192,270.4436,104.4078,255.7301,0,U,49219,999,23945,-.17524286E-3,-.58E-6,0
JILIN-1 GAOFEN 2D,2021-086A,2026-07-07T15:02:18.872448,15.10824454,.00344109,97.6496,311.3360,75.6281,284.8764,0,U,49256,999,26380,.2330323E-3,.386E-4,0
SHIYAN-10 01 (SY-10 01),2021-087A,2026-07-07T08:15:11.795328,2.00603839,.69148434,63.1224,217.7521,269.8283,17.7619,0,U,49258,999,3493,0,.751E-5,0
LANDSAT 9,2021-088A,2026-07-06T16:46:13.961280,14.57111056,.00011665,98.2273,257.6394,89.6982,270.4350,0,U,49260,999,25384,.81232213E-4,.321E-5,0
CS1,2021-088B,2026-07-07T10:00:23.938272,15.35313815,.00114189,97.3749,251.7007,14.9605,345.1974,0,U,49261,999,26352,.28533209E-3,.9726E-4,0
CS2,2021-088C,2026-07-07T11:22:26.576544,15.37021678,.00091111,97.3802,254.2629,20.0657,340.0944,0,U,49262,999,26363,.32276898E-3,.11628E-3,0
CUTE,2021-088D,2026-07-07T05:31:17.825952,16.04923388,.00014696,97.4041,289.5988,300.4812,59.6324,0,U,49263,999,26575,.75030128E-3,.505644E-2,.12214957E-3
CUPID,2021-088E,2026-07-06T09:40:13.465632,15.26292289,.00116309,97.3852,248.3752,4.5563,355.5779,0,U,49264,999,26311,.24465536E-3,.6285E-4,0
ONEWEB-0332,2021-090A,2026-07-07T05:42:09.852192,13.14503107,.0001907,87.8969,285.7136,105.9081,254.2259,0,U,49279,999,23021,-.13088545E-3,-.36E-6,0
ONEWEB-0347,2021-090B,2026-07-07T04:41:53.997504,13.20769752,.00019093,87.9193,270.4537,106.2256,253.9087,0,U,49280,999,23368,-.71379677E-4,-.16E-6,0
ONEWEB-0349,2021-090C,2026-07-07T05:27:57.743424,13.20773805,.0002126,87.9192,270.4486,100.6223,259.5150,0,U,49281,999,23247,.4729513E-4,.32E-6,0
ONEWEB-0353,2021-090D,2026-07-07T05:30:44.666496,13.14502306,.00018584,87.8972,285.7114,106.9745,253.1588,0,U,49282,999,23021,-.39650268E-3,-.134E-5,0
ONEWEB-0356,2021-090E,2026-07-06T16:41:54.970368,13.20770062,.00014187,87.9191,270.5473,81.1538,278.9756,0,U,49283,999,23240,-.42615584E-4,-.4E-7,0
ONEWEB-0358,2021-090F,2026-07-06T15:44:45.498624,13.20777683,.00020188,87.9193,270.5627,94.8364,265.3000,0,U,49284,999,23312,.59455122E-4,.37E-6,0
ONEWEB-0359,2021-090G,2026-07-07T04:15:13.980096,13.20769815,.00022019,87.9193,270.4513,92.8471,267.2915,0,U,49285,999,23317,.135424E-3,.68E-6,0
ONEWEB-0360,2021-090H,2026-07-07T04:00:43.395552,13.20770812,.0002163,87.9192,270.4595,99.1819,260.9559,0,U,49286,999,23248,.19094191E-3,.91E-6,0
ONEWEB-0361,2021-090J,2026-07-06T16:39:30.360096,13.20772111,.00020873,87.9195,270.5523,95.3050,264.8322,0,U,49287,999,23287,-.1135584E-3,-.33E-6,0
ONEWEB-0362,2021-090K,2026-07-06T08:36:47.460096,13.19725439,.00021868,87.9184,301.1596,104.2013,255.9363,0,U,49288,999,22944,.1335317E-3,.66E-6,0
ONEWEB-0363,2021-090L,2026-07-06T17:01:19.859232,13.20771936,.00018252,87.9192,270.5495,91.7957,268.3385,0,U,49289,999,23288,.62744034E-4,.38E-6,0
ONEWEB-0364,2021-090M,2026-07-06T16:07:58.089504,13.20773417,.00020568,87.9191,270.5647,99.9522,260.1844,0,U,49290,999,23401,-.15563172E-2,-.62E-5,0
ONEWEB-0365,2021-090N,2026-07-07T06:40:33.045600,13.19725866,.00020009,87.9192,300.9664,102.9963,257.1393,0,U,49291,999,22907,.11344458E-3,.58E-6,0
ONEWEB-0366,2021-090P,2026-07-07T05:26:10.870944,13.14501977,.00020199,87.8973,285.7138,99.6919,260.4439,0,U,49292,999,23019,-.456478E-3,-.156E-5,0
ONEWEB-0367,2021-090Q,2026-07-07T03:54:39.482208,13.20773130,.00021569,87.9193,270.4606,103.5270,256.6104,0,U,49293,999,23246,.15721246E-3,.77E-6,0
ONEWEB-0368,2021-090R,2026-07-07T05:06:10.657440,13.20771187,.00013939,87.9181,270.4587,110.4464,249.6819,0,U,49294,999,23362,.33401878E-4,.27E-6,0
ONEWEB-0369,2021-090S,2026-07-07T06:33:43.726464,13.19726077,.00019163,87.9185,300.9731,102.6649,257.4698,0,U,49295,999,22906,.10168072E-3,.54E-6,0
ONEWEB-0370,2021-090T,2026-07-06T17:13:27.305760,13.20771600,.00024694,87.9193,270.5486,96.2337,263.9078,0,U,49296,999,23244,.16057095E-3,.78E-6,0
ONEWEB-0371,2021-090U,2026-07-07T06:45:05.325696,13.19724656,.00020542,87.9193,300.9653,102.8136,257.3227,0,U,49297,999,22910,-.74101528E-4,-.17E-6,0
ONEWEB-0372,2021-090V,2026-07-07T05:42:18.791136,13.20773991,.0002068,87.9191,270.4466,100.9375,259.1991,0,U,49298,999,23248,.19204555E-3,.91E-6,0
ONEWEB-0373,2021-090W,2026-07-06T15:46:10.336512,13.20772409,.00021054,87.9190,270.5625,97.2985,262.8388,0,U,49299,999,23359,.7090148E-4,.42E-6,0
ONEWEB-0374,2021-090X,2026-07-07T05:07:54.088608,13.14502491,.00017034,87.8977,285.7076,84.3700,275.7624,0,U,49300,999,23019,-.31148857E-3,-.103E-5,0
ONEWEB-0375,2021-090Y,2026-07-07T04:12:50.075712,13.20772761,.00018528,87.9192,270.4512,83.6328,276.5016,0,U,49301,999,23316,.23885312E-3,.11E-5,0
ONEWEB-0376,2021-090Z,2026-07-07T06:42:48.867264,13.19726235,.00019726,87.9191,300.9655,106.5462,253.5888,0,U,49302,999,22910,.70803154E-4,.41E-6,0
ONEWEB-0377,2021-090AA,2026-07-07T03:53:38.663520,13.20773579,.00020093,87.9192,270.4558,92.7571,267.3792,0,U,49303,999,23315,.47058131E-4,.32E-6,0
ONEWEB-0378,2021-090AB,2026-07-06T15:39:06.812352,13.20771843,.00019149,87.9189,270.5616,96.8414,263.2938,0,U,49304,999,23235,.19523091E-3,.92E-6,0
ONEWEB-0379,2021-090AC,2026-07-06T16:13:47.249184,13.14501567,.00019059,87.8975,285.8250,98.0929,262.0417,0,U,49305,999,23012,-.41773349E-3,-.142E-5,0
ONEWEB-0380,2021-090AD,2026-07-07T06:38:16.829088,13.19726135,.00020289,87.9184,300.9705,94.8969,265.2395,0,U,49306,999,22907,.16321536E-3,.78E-6,0
ONEWEB-0381,2021-090AE,2026-07-06T16:54:02.340864,13.20773197,.00019058,87.9193,270.5516,91.8857,268.2495,0,U,49307,999,23240,.11253123E-3,.59E-6,0
ONEWEB-0382,2021-090AF,2026-07-07T05:18:17.706528,13.20771467,.00018041,87.9192,270.4426,93.8539,266.2800,0,U,49308,999,23246,.78151241E-4,.45E-6,0
ONEWEB-0383,2021-090AG,2026-07-06T16:04:39.514656,13.14502572,.00018301,87.8978,285.8183,99.3146,260.8191,0,U,49309,999,23015,-.41722182E-4,-.3E-7,0
ONEWEB-0384,2021-090AH,2026-07-07T05:01:01.526880,13.20813781,.00016402,87.9194,270.4888,94.7565,265.3756,0,U,49310,999,23247,.95540308E-4,.52E-6,0
ONEWEB-0385,2021-090AJ,2026-07-06T16:24:56.034432,13.20773795,.00019013,87.9193,270.5552,95.2267,264.9083,0,U,49311,999,23237,-.88274581E-4,-.23E-6,0
ONEWEB-0386,2021-090AK,2026-07-06T16:49:11.903808,13.20773021,.00018126,87.9197,270.5433,95.6167,264.5173,0,U,49312,999,23239,-.23359468E-4,.3E-7,0
ONEWEB-0387,2021-090AL,2026-07-06T16:27:21.774816,13.20773890,.0002131,87.9183,270.5661,89.0584,271.0793,0,U,49313,999,23239,-.24458902E-4,.3E-7,0
ONEWEB-0388,2021-090AM,2026-07-07T06:31:27.258528,13.19726008,.00018352,87.9187,300.9695,97.4483,262.6858,0,U,49314,999,22906,.19618289E-3,.91E-6,0
2021-091B,2021-091B,2026-07-07T14:50:21.482016,15.18657244,.00125947,97.4479,15.8831,336.7709,23.2955,0,U,49316,999,26208,.10403417E-3,.2091E-4,0
2021-091D,2021-091D,2026-07-07T15:15:23.152032,14.00142864,.0010045,97.4484,217.6352,273.6159,86.3861,0,U,49318,999,25094,.28270982E-4,.1E-6,0
SHIJIAN-21 (SJ-21),2021-094A,2026-07-07T15:56:17.978208,1.00283348,.0051447,5.1585,61.0526,168.7238,62.5991,0,U,49330,999,556,0,-.336E-5,0
SES-17,2021-095A,2026-07-07T04:29:16.354176,1.00271019,.00012808,0.0214,43.2783,90.4716,151.6318,0,U,49332,999,1805,0,-.257E-5,0
SYRACUSE 4A,2021-095B,2026-07-07T10:32:19.688064,1.00270699,.00013374,0.0227,36.3258,64.8621,27.8151,0,U,49333,999,1815,0,0,0
QZS-1R (MICHIBIKI-1R),2021-096A,2026-07-07T14:19:35.596992,1.00248309,.07554062,37.5005,79.2823,272.1222,281.4736,0,U,49336,999,1721,0,-.264E-5,0
JILIN-1 GAOFEN 2F,2021-097A,2026-07-07T14:34:48.748224,15.07912610,.00194259,97.6724,314.7610,153.7969,206.4247,0,U,49338,999,25939,.18399502E-3,.2771E-4,0
